{"type":"FeatureCollection","features":[{"type":"Feature","geometry":{"type":"LineString","coordinates":[[-78.849322,-2.741136],[-78.849175,-2.741786],[-78.849121,-2.742066],[-78.849077,-2.742232],[-78.848992,-2.742654]]},"properties":{"id":84,"route_id":17,"name":"Tramo 84 R17","description":"Tramo 84 R17","stroke":"#FFA500","stroke-width":4,"stroke-opacity":1}},{"type":"Feature","geometry":{"type":"LineString","coordinates":[[-78.847633,-2.745056],[-78.847139,-2.746959],[-78.846978,-2.747265],[-78.846922,-2.747351],[-78.846844,-2.747487],[-78.846772,-2.747538],[-78.846741,-2.747667],[-78.846734,-2.747701],[-78.846734,-2.747719],[-78.846736,-2.747759]]},"properties":{"id":200,"route_id":16,"name":"Tramo 200 R16","description":"Tramo 200 R16","stroke":"#008000","stroke-width":4,"stroke-opacity":1}},{"type":"Feature","geometry":{"type":"LineString","coordinates":[[-78.847927,-2.738079],[-78.847756,-2.738645]]},"properties":{"id":37,"route_id":8,"name":"Tramo 37 R8","description":"Tramo 37 R8","stroke":"#00BFFF","stroke-width":4,"stroke-opacity":1}},{"type":"Feature","geometry":{"type":"LineString","coordinates":[[-78.847583,-2.739197],[-78.847375,-2.739911]]},"properties":{"id":153,"route_id":7,"name":"Tramo 153 R7","description":"Tramo 153 R7","stroke":"#FF0000","stroke-width":4,"stroke-opacity":1}},{"type":"Feature","geometry":{"type":"LineString","coordinates":[[-78.847586,-2.739194],[-78.847364,-2.739915]]},"properties":{"id":41,"route_id":7,"name":"Tramo 41 R7","description":"Tramo 41 R7","stroke":"#FF0000","stroke-width":4,"stroke-opacity":1}},{"type":"Feature","geometry":{"type":"LineString","coordinates":[[-78.847388,-2.73452],[-78.847913,-2.734156],[-78.84813,-2.733989],[-78.848204,-2.733931],[-78.84829,-2.733875],[-78.848418,-2.733778],[-78.848538,-2.733668],[-78.848621,-2.733593],[-78.848687,-2.733529],[-78.848716,-2.733466],[-78.848764,-2.733344],[-78.848822,-2.733155],[-78.848873,-2.732999],[-78.84888,-2.732891],[-78.848847,-2.732806],[-78.848772,-2.732723],[-78.848681,-2.732605],[-78.84851,-2.732417]]},"properties":{"id":157,"route_id":4,"name":"Tramo 157 R4 ","description":"Tramo 157 R4 ","stroke":"#FF6666","stroke-width":4,"stroke-opacity":1}},{"type":"Feature","geometry":{"type":"LineString","coordinates":[[-78.845107,-2.7361],[-78.845031,-2.736664]]},"properties":{"id":107,"route_id":2,"name":"Tramo 107 R2","description":"Tramo 107 R2","stroke":"#8D6E63","stroke-width":4,"stroke-opacity":1}},{"type":"Feature","geometry":{"type":"LineString","coordinates":[[-78.845022,-2.736735],[-78.844898,-2.737584]]},"properties":{"id":108,"route_id":2,"name":"Tramo 108 R2","description":"Tramo 108 R2","stroke":"#8D6E63","stroke-width":4,"stroke-opacity":1}},{"type":"Feature","geometry":{"type":"LineString","coordinates":[[-78.846031,-2.738185],[-78.84612,-2.737763]]},"properties":{"id":156,"route_id":2,"name":"Tramo 156 R2","description":"Tramo 156 R2","stroke":"#8D6E63","stroke-width":4,"stroke-opacity":1}},{"type":"Feature","geometry":{"type":"LineString","coordinates":[[-78.842771,-2.736851],[-78.843037,-2.737018],[-78.843132,-2.737056],[-78.843231,-2.737098],[-78.843382,-2.737142],[-78.843481,-2.737171],[-78.843664,-2.737239],[-78.843837,-2.737282],[-78.843997,-2.737318],[-78.844171,-2.737372],[-78.844231,-2.737409],[-78.844308,-2.737459],[-78.844387,-2.737496],[-78.844385,-2.737571],[-78.844385,-2.737633],[-78.844381,-2.737676]]},"properties":{"id":166,"route_id":2,"name":"Tramo 166 R2","description":"Tramo 166 R2","stroke":"#8D6E63","stroke-width":4,"stroke-opacity":1}},{"type":"Feature","geometry":{"type":"LineString","coordinates":[[-78.844423,-2.737512],[-78.844632,-2.73756],[-78.844852,-2.737625]]},"properties":{"id":167,"route_id":2,"name":"Tramo 167 R2","description":"Tramo 167 R2","stroke":"#8D6E63","stroke-width":4,"stroke-opacity":1}},{"type":"Feature","geometry":{"type":"LineString","coordinates":[[-78.846534,-2.737841],[-78.846491,-2.737906],[-78.846465,-2.738042],[-78.846429,-2.738221]]},"properties":{"id":182,"route_id":2,"name":"Tramo 182 R2","description":"Tramo 182 R2","stroke":"#8D6E63","stroke-width":4,"stroke-opacity":1}},{"type":"Feature","geometry":{"type":"LineString","coordinates":[[-78.842634,-2.73679],[-78.842457,-2.736726],[-78.842285,-2.736632],[-78.841992,-2.7364],[-78.84187,-2.736298],[-78.841713,-2.736172],[-78.841485,-2.735976]]},"properties":{"id":235,"route_id":2,"name":"Tramo 235 R2","description":"Tramo 235 R2","stroke":"#8D6E63","stroke-width":4,"stroke-opacity":1}},{"type":"Feature","geometry":{"type":"LineString","coordinates":[[-78.845236,-2.737708],[-78.845138,-2.738472]]},"properties":{"id":23,"route_id":2,"name":"Tramo 23 R2","description":"Tramo 23 R2","stroke":"#8D6E63","stroke-width":4,"stroke-opacity":1}},{"type":"Feature","geometry":{"type":"LineString","coordinates":[[-78.846928,-2.736565],[-78.846771,-2.73712]]},"properties":{"id":184,"route_id":1,"name":"Tramo 184 R1","description":"Tramo 184 R1","stroke":"#FFA000","stroke-width":4,"stroke-opacity":1}},{"type":"Feature","geometry":{"type":"LineString","coordinates":[[-78.842832,-2.736152],[-78.842692,-2.736788]]},"properties":{"id":165,"route_id":1,"name":"Tramo 165 R1","description":"Tramo 165 R1","stroke":"#FFA000","stroke-width":4,"stroke-opacity":1}},{"type":"Feature","geometry":{"type":"LineString","coordinates":[[-78.844987,-2.736686],[-78.843948,-2.736426],[-78.842936,-2.736153]]},"properties":{"id":164,"route_id":1,"name":"Tramo 164 R1","description":"Tramo 164 R1","stroke":"#FFA000","stroke-width":4,"stroke-opacity":1}},{"type":"Feature","geometry":{"type":"LineString","coordinates":[[-78.843058,-2.735735],[-78.843292,-2.735761],[-78.84354,-2.735795],[-78.843981,-2.735846]]},"properties":{"id":163,"route_id":1,"name":"Tramo 163 R1 ","description":"Tramo 163 R1 ","stroke":"#FFA000","stroke-width":4,"stroke-opacity":1}},{"type":"Feature","geometry":{"type":"LineString","coordinates":[[-78.845063,-2.736053],[-78.844055,-2.73586]]},"properties":{"id":162,"route_id":1,"name":"Tramo 162 R1 ","description":"Tramo 162 R1 ","stroke":"#FFA000","stroke-width":4,"stroke-opacity":1}},{"type":"Feature","geometry":{"type":"LineString","coordinates":[[-78.845147,-2.736069],[-78.846081,-2.736296]]},"properties":{"id":1,"route_id":1,"name":"Tramo 1 R1","description":"Tramo 1 R1","stroke":"#FFA000","stroke-width":4,"stroke-opacity":1}},{"type":"Feature","geometry":{"type":"LineString","coordinates":[[-78.846139,-2.73631],[-78.84691,-2.736523]]},"properties":{"id":2,"route_id":1,"name":"Tramo 2 R1","description":"Tramo 2 R1","stroke":"#FFA000","stroke-width":4,"stroke-opacity":1}},{"type":"Feature","geometry":{"type":"LineString","coordinates":[[-78.846016,-2.736913],[-78.846106,-2.736347]]},"properties":{"id":9,"route_id":1,"name":"tramo 9 R1","description":"tramo 9 R1","stroke":"#FFA000","stroke-width":4,"stroke-opacity":1}},{"type":"Feature","geometry":{"type":"LineString","coordinates":[[-78.846118,-2.736274],[-78.846264,-2.735296]]},"properties":{"id":10,"route_id":1,"name":"Tramo 10 R1","description":"Tramo 10 R1","stroke":"#FFA000","stroke-width":4,"stroke-opacity":1}},{"type":"Feature","geometry":{"type":"LineString","coordinates":[[-78.845068,-2.736703],[-78.846018,-2.736954]]},"properties":{"id":12,"route_id":1,"name":"Tramo 12 R1","description":"Tramo 12 R1","stroke":"#FFA000","stroke-width":4,"stroke-opacity":1}},{"type":"Feature","geometry":{"type":"LineString","coordinates":[[-78.847338,-2.735725],[-78.846336,-2.735235]]},"properties":{"id":103,"route_id":1,"name":"Trano 103 R1","description":"Trano 103 R1","stroke":"#FFA000","stroke-width":4,"stroke-opacity":1}},{"type":"Feature","geometry":{"type":"LineString","coordinates":[[-78.846266,-2.735212],[-78.845404,-2.734803]]},"properties":{"id":104,"route_id":1,"name":"Tramo 104 R1","description":"Tramo 104 R1","stroke":"#FFA000","stroke-width":4,"stroke-opacity":1}},{"type":"Feature","geometry":{"type":"LineString","coordinates":[[-78.845184,-2.734724],[-78.844907,-2.734484],[-78.844738,-2.734125],[-78.844581,-2.733983],[-78.843673,-2.733737]]},"properties":{"id":105,"route_id":1,"name":"Tramo 105 R1","description":"Tramo 105 R1","stroke":"#FFA000","stroke-width":4,"stroke-opacity":1}},{"type":"Feature","geometry":{"type":"LineString","coordinates":[[-78.845248,-2.734911],[-78.845182,-2.735454],[-78.845115,-2.736028]]},"properties":{"id":106,"route_id":1,"name":"Tramo 106 R1","description":"Tramo 106 R1","stroke":"#FFA000","stroke-width":4,"stroke-opacity":1}},{"type":"Feature","geometry":{"type":"LineString","coordinates":[[-78.845421,-2.734096],[-78.845319,-2.734656]]},"properties":{"id":160,"route_id":1,"name":"Tramo 160 R1","description":"Tramo 160 R1","stroke":"#FFA000","stroke-width":4,"stroke-opacity":1}},{"type":"Feature","geometry":{"type":"LineString","coordinates":[[-78.844013,-2.735814],[-78.844039,-2.735123],[-78.844052,-2.734924],[-78.843886,-2.734664],[-78.843835,-2.734579],[-78.84379,-2.734489],[-78.843701,-2.734322],[-78.843657,-2.734219],[-78.843634,-2.734157],[-78.843585,-2.734043],[-78.843638,-2.733829]]},"properties":{"id":161,"route_id":1,"name":"Tramo 161 R1","description":"Tramo 161 R1","stroke":"#FFA000","stroke-width":4,"stroke-opacity":1}},{"type":"Feature","geometry":{"type":"LineString","coordinates":[[-78.844953,-2.737638],[-78.845403,-2.737679],[-78.845887,-2.7377]]},"properties":{"id":7,"route_id":2,"name":"Tramo 7 R2","description":"Tramo 7 R2","stroke":"#8D6E63","stroke-width":4,"stroke-opacity":1}},{"type":"Feature","geometry":{"type":"LineString","coordinates":[[-78.846009,-2.737003],[-78.845923,-2.737663]]},"properties":{"id":8,"route_id":2,"name":"Tramo 8 R2","description":"Tramo 8 R2","stroke":"#8D6E63","stroke-width":4,"stroke-opacity":1}},{"type":"Feature","geometry":{"type":"LineString","coordinates":[[-78.845956,-2.737705],[-78.8463,-2.737734],[-78.846552,-2.737783]]},"properties":{"id":11,"route_id":2,"name":"Tramo 11 R2","description":"Tramo 11 R2","stroke":"#8D6E63","stroke-width":4,"stroke-opacity":1}},{"type":"Feature","geometry":{"type":"LineString","coordinates":[[-78.846725,-2.737142],[-78.846064,-2.73697]]},"properties":{"id":13,"route_id":3,"name":"Tramo 13 R3","description":"Tramo 13 R3","stroke":"#28A745","stroke-width":4,"stroke-opacity":1}},{"type":"Feature","geometry":{"type":"LineString","coordinates":[[-78.846786,-2.737159],[-78.847089,-2.737243]]},"properties":{"id":14,"route_id":3,"name":"Tramo 14 R3","description":"Tramo 14 R3","stroke":"#28A745","stroke-width":4,"stroke-opacity":1}},{"type":"Feature","geometry":{"type":"LineString","coordinates":[[-78.847147,-2.737257],[-78.847826,-2.737402]]},"properties":{"id":15,"route_id":3,"name":"Tramo 15 R3","description":"Tramo 15 R3","stroke":"#28A745","stroke-width":4,"stroke-opacity":1}},{"type":"Feature","geometry":{"type":"LineString","coordinates":[[-78.847899,-2.737416],[-78.848743,-2.737593]]},"properties":{"id":16,"route_id":3,"name":"Tramo 16 R3","description":"Tramo 16 R3","stroke":"#28A745","stroke-width":4,"stroke-opacity":1}},{"type":"Feature","geometry":{"type":"LineString","coordinates":[[-78.847855,-2.737445],[-78.847741,-2.738003]]},"properties":{"id":22,"route_id":3,"name":"Tramo 22 R3","description":"Tramo 22 R3","stroke":"#28A745","stroke-width":4,"stroke-opacity":1}},{"type":"Feature","geometry":{"type":"LineString","coordinates":[[-78.844338,-2.737716],[-78.843673,-2.737729]]},"properties":{"id":168,"route_id":3,"name":"Tramo 168 R3","description":"Tramo 168 R3","stroke":"#28A745","stroke-width":4,"stroke-opacity":1}},{"type":"Feature","geometry":{"type":"LineString","coordinates":[[-78.846736,-2.737196],[-78.846657,-2.737506],[-78.846621,-2.737663],[-78.84659,-2.737758]]},"properties":{"id":183,"route_id":3,"name":"Tramo 183 R3","description":"Tramo 183 R3","stroke":"#28A745","stroke-width":4,"stroke-opacity":1}},{"type":"Feature","geometry":{"type":"LineString","coordinates":[[-78.846963,-2.736536],[-78.847229,-2.73662]]},"properties":{"id":3,"route_id":4,"name":"Tramo 3 R4","description":"Tramo 3 R4","stroke":"#FF6666","stroke-width":4,"stroke-opacity":1}},{"type":"Feature","geometry":{"type":"LineString","coordinates":[[-78.8473,-2.736634],[-78.847599,-2.736721],[-78.847893,-2.73682],[-78.847944,-2.736841]]},"properties":{"id":4,"route_id":4,"name":"Tramo 4 R4","description":"Tramo 4 R4","stroke":"#FF6666","stroke-width":4,"stroke-opacity":1}},{"type":"Feature","geometry":{"type":"LineString","coordinates":[[-78.847978,-2.736796],[-78.848037,-2.736499],[-78.848056,-2.73642],[-78.848077,-2.73639],[-78.848113,-2.73634],[-78.84817,-2.736327],[-78.848294,-2.736389],[-78.848404,-2.736454],[-78.84849,-2.736504],[-78.84859,-2.736569],[-78.848645,-2.73657],[-78.848662,-2.736565],[-78.848689,-2.736561],[-78.848715,-2.736531],[-78.848721,-2.736333],[-78.848703,-2.736176]]},"properties":{"id":5,"route_id":4,"name":"Tramo 5 R4","description":"Tramo 5 R4","stroke":"#FF6666","stroke-width":4,"stroke-opacity":1}},{"type":"Feature","geometry":{"type":"LineString","coordinates":[[-78.848002,-2.736875],[-78.848195,-2.737001],[-78.848304,-2.73706],[-78.848422,-2.737105],[-78.84856,-2.737143],[-78.848655,-2.73717],[-78.848696,-2.737189],[-78.848758,-2.7372],[-78.848777,-2.737205],[-78.848793,-2.737211],[-78.848846,-2.73723],[-78.848887,-2.737236],[-78.84894,-2.737233],[-78.849007,-2.737202],[-78.849012,-2.737243],[-78.849012,-2.737262],[-78.848973,-2.737283],[-78.848918,-2.737256],[-78.848846,-2.73723],[-78.848727,-2.737195]]},"properties":{"id":6,"route_id":4,"name":"Tramo 6 R4","description":"Tramo 6 R4","stroke":"#FF6666","stroke-width":4,"stroke-opacity":1}},{"type":"Feature","geometry":{"type":"LineString","coordinates":[[-78.847333,-2.734564],[-78.84737,-2.734683],[-78.84738,-2.734907],[-78.84738,-2.73508],[-78.847396,-2.735259],[-78.847394,-2.735384],[-78.847401,-2.735505],[-78.847404,-2.735677]]},"properties":{"id":17,"route_id":4,"name":"Tramo 17 R4","description":"Tramo 17 R4","stroke":"#FF6666","stroke-width":4,"stroke-opacity":1}},{"type":"Feature","geometry":{"type":"LineString","coordinates":[[-78.84747,-2.735827],[-78.84733,-2.736378],[-78.84727,-2.736598]]},"properties":{"id":18,"route_id":4,"name":"Tramo 18 R4","description":"Tramo 18 R4","stroke":"#FF6666","stroke-width":4,"stroke-opacity":1}},{"type":"Feature","geometry":{"type":"LineString","coordinates":[[-78.847254,-2.736666],[-78.847164,-2.737048],[-78.847122,-2.737222]]},"properties":{"id":19,"route_id":4,"name":"Tramo 19 R4","description":"Tramo 19 R4","stroke":"#FF6666","stroke-width":4,"stroke-opacity":1}},{"type":"Feature","geometry":{"type":"LineString","coordinates":[[-78.848926,-2.735506],[-78.849076,-2.736582],[-78.849126,-2.737064],[-78.84909,-2.737121],[-78.849055,-2.737191],[-78.849038,-2.737271],[-78.849067,-2.737323],[-78.849111,-2.737386]]},"properties":{"id":100,"route_id":4,"name":"Tramo 100 R4","description":"Tramo 100 R4","stroke":"#FF6666","stroke-width":4,"stroke-opacity":1}},{"type":"Feature","geometry":{"type":"LineString","coordinates":[[-78.848862,-2.735421],[-78.848764,-2.735894],[-78.848622,-2.736018],[-78.848446,-2.73612],[-78.848317,-2.736139],[-78.848389,-2.736161],[-78.848531,-2.736162],[-78.848683,-2.736098],[-78.848786,-2.735955],[-78.848767,-2.735897]]},"properties":{"id":101,"route_id":4,"name":"Tramo 101 R4","description":"Tramo 101 R4","stroke":"#FF6666","stroke-width":4,"stroke-opacity":1}},{"type":"Feature","geometry":{"type":"LineString","coordinates":[[-78.848691,-2.736123],[-78.848601,-2.736159],[-78.848531,-2.736179],[-78.848461,-2.73617],[-78.848264,-2.736116],[-78.84805,-2.736019],[-78.847792,-2.735908],[-78.847545,-2.735801],[-78.847508,-2.735788]]},"properties":{"id":102,"route_id":4,"name":"Tramo 102 R4","description":"Tramo 102 R4","stroke":"#FF6666","stroke-width":4,"stroke-opacity":1}},{"type":"Feature","geometry":{"type":"LineString","coordinates":[[-78.848119,-2.736333],[-78.848193,-2.736333],[-78.848276,-2.736368],[-78.848525,-2.736532],[-78.848662,-2.736575],[-78.848726,-2.736525],[-78.848714,-2.73634],[-78.848704,-2.736172]]},"properties":{"id":133,"route_id":4,"name":"Tramo 133 R4 ","description":"Tramo 133 R4 ","stroke":"#FF6666","stroke-width":4,"stroke-opacity":1}},{"type":"Feature","geometry":{"type":"LineString","coordinates":[[-78.849442,-2.737903],[-78.84949,-2.737826],[-78.849544,-2.737566],[-78.849583,-2.737363]]},"properties":{"id":151,"route_id":4,"name":"Tramo 151 R4","description":"Tramo 151 R4","stroke":"#FF6666","stroke-width":4,"stroke-opacity":1}},{"type":"Feature","geometry":{"type":"LineString","coordinates":[[-78.849559,-2.737294],[-78.849455,-2.737259],[-78.849307,-2.737227],[-78.849265,-2.7372],[-78.849231,-2.737157],[-78.849166,-2.737132]]},"properties":{"id":152,"route_id":4,"name":"Tramo 152 R4","description":"Tramo 152 R4","stroke":"#FF6666","stroke-width":4,"stroke-opacity":1}},{"type":"Feature","geometry":{"type":"LineString","coordinates":[[-78.847284,-2.734514],[-78.84714,-2.734436],[-78.847035,-2.734344],[-78.846884,-2.734271],[-78.846754,-2.73421],[-78.846592,-2.734159],[-78.846479,-2.734136],[-78.846295,-2.734154],[-78.846247,-2.734159]]},"properties":{"id":158,"route_id":4,"name":"Tramo 158 R4","description":"Tramo 158 R4","stroke":"#FF6666","stroke-width":4,"stroke-opacity":1}},{"type":"Feature","geometry":{"type":"LineString","coordinates":[[-78.846162,-2.734171],[-78.846068,-2.734199],[-78.845955,-2.734226],[-78.845811,-2.734235],[-78.845705,-2.734208],[-78.845595,-2.734163],[-78.845456,-2.734085]]},"properties":{"id":159,"route_id":4,"name":"Tramo 159 R4","description":"Tramo 159 R4","stroke":"#FF6666","stroke-width":4,"stroke-opacity":1}},{"type":"Feature","geometry":{"type":"LineString","coordinates":[[-78.847323,-2.735801],[-78.847202,-2.735925],[-78.847119,-2.736045],[-78.847084,-2.736113],[-78.847038,-2.736231],[-78.847017,-2.736296],[-78.846986,-2.736377],[-78.846958,-2.736481]]},"properties":{"id":185,"route_id":4,"name":"Tramo 185 R4","description":"Tramo 185 R4","stroke":"#FF6666","stroke-width":4,"stroke-opacity":1}},{"type":"Feature","geometry":{"type":"LineString","coordinates":[[-78.848884,-2.73541],[-78.848887,-2.735337],[-78.848906,-2.735226],[-78.848931,-2.735098],[-78.848932,-2.735017],[-78.848953,-2.734931],[-78.849029,-2.734758],[-78.849156,-2.734468],[-78.849273,-2.734226],[-78.849371,-2.733955],[-78.849433,-2.733774],[-78.849491,-2.733418],[-78.849531,-2.73307],[-78.849578,-2.732803],[-78.849596,-2.732706],[-78.849635,-2.732647],[-78.849744,-2.73245],[-78.849952,-2.732212],[-78.850077,-2.732084],[-78.850189,-2.731936],[-78.850273,-2.731801],[-78.850326,-2.731708],[-78.850391,-2.731562],[-78.85042,-2.731488],[-78.850517,-2.731295],[-78.850612,-2.731063],[-78.850634,-2.730966],[-78.850762,-2.730878],[-78.85094,-2.730851]]},"properties":{"id":232,"route_id":4,"name":"Tramo 232 R4","description":"Tramo 232 R4","stroke":"#FF6666","stroke-width":4,"stroke-opacity":1}},{"type":"Feature","geometry":{"type":"LineString","coordinates":[[-78.845176,-2.738527],[-78.845905,-2.738693]]},"properties":{"id":24,"route_id":5,"name":"Tramo 24 R5","description":"Tramo 24 R5","stroke":"#008000","stroke-width":4,"stroke-opacity":1}},{"type":"Feature","geometry":{"type":"LineString","coordinates":[[-78.845976,-2.738708],[-78.84627,-2.738784]]},"properties":{"id":25,"route_id":5,"name":"Tramo 25 R5","description":"Tramo 25 R5","stroke":"#008000","stroke-width":4,"stroke-opacity":1}},{"type":"Feature","geometry":{"type":"LineString","coordinates":[[-78.845932,-2.738742],[-78.84586,-2.739008],[-78.845824,-2.739129],[-78.845775,-2.739267],[-78.845711,-2.739443],[-78.845693,-2.739518]]},"properties":{"id":27,"route_id":5,"name":"Tramo 27 R5","description":"Tramo 27 R5","stroke":"#008000","stroke-width":4,"stroke-opacity":1}},{"type":"Feature","geometry":{"type":"LineString","coordinates":[[-78.845943,-2.738667],[-78.846023,-2.738235]]},"properties":{"id":28,"route_id":5,"name":"Tramo 28 R5","description":"Tramo 28 R5","stroke":"#008000","stroke-width":4,"stroke-opacity":1}},{"type":"Feature","geometry":{"type":"LineString","coordinates":[[-78.845094,-2.738509],[-78.844708,-2.738388],[-78.844393,-2.738267]]},"properties":{"id":65,"route_id":5,"name":"Tramo 65 R5","description":"Tramo 65 R5","stroke":"#008000","stroke-width":4,"stroke-opacity":1}},{"type":"Feature","geometry":{"type":"LineString","coordinates":[[-78.845125,-2.738556],[-78.84508,-2.738936],[-78.845031,-2.739331]]},"properties":{"id":66,"route_id":5,"name":"Tramo 66 R5","description":"Tramo 66 R5","stroke":"#008000","stroke-width":4,"stroke-opacity":1}},{"type":"Feature","geometry":{"type":"LineString","coordinates":[[-78.844893,-2.73767],[-78.844873,-2.737803],[-78.844846,-2.737921],[-78.844816,-2.737995],[-78.844785,-2.738042],[-78.844743,-2.738068],[-78.844713,-2.738082],[-78.844692,-2.738094],[-78.844633,-2.738103],[-78.844549,-2.738107],[-78.844417,-2.738117]]},"properties":{"id":109,"route_id":5,"name":"Tramo 109 R5","description":"Tramo 109 R5","stroke":"#008000","stroke-width":4,"stroke-opacity":1}},{"type":"Feature","geometry":{"type":"LineString","coordinates":[[-78.846309,-2.738848],[-78.846155,-2.739616]]},"properties":{"id":180,"route_id":5,"name":"Tramo 180 R5","description":"Tramo 180 R5","stroke":"#008000","stroke-width":4,"stroke-opacity":1}},{"type":"Feature","geometry":{"type":"LineString","coordinates":[[-78.844381,-2.73773],[-78.844374,-2.738091]]},"properties":{"id":234,"route_id":5,"name":"Tramo 234 R5","description":"Tramo 234 R5","stroke":"#008000","stroke-width":4,"stroke-opacity":1}},{"type":"Feature","geometry":{"type":"LineString","coordinates":[[-78.847104,-2.737296],[-78.846954,-2.737848]]},"properties":{"id":20,"route_id":6,"name":"Tramo 20 R6","description":"Tramo 20 R6","stroke":"#BDB76B","stroke-width":4,"stroke-opacity":1}},{"type":"Feature","geometry":{"type":"LineString","coordinates":[[-78.847686,-2.738029],[-78.847494,-2.737991],[-78.847388,-2.737977],[-78.847288,-2.737956],[-78.847167,-2.737925],[-78.847057,-2.737904],[-78.846991,-2.737884]]},"properties":{"id":21,"route_id":6,"name":"Tramo 21 R6","description":"Tramo 21 R6","stroke":"#BDB76B","stroke-width":4,"stroke-opacity":1}},{"type":"Feature","geometry":{"type":"LineString","coordinates":[[-78.848753,-2.737599],[-78.848694,-2.73815]]},"properties":{"id":29,"route_id":6,"name":"Tramo 29 R6","description":"Tramo 29 R6","stroke":"#BDB76B","stroke-width":4,"stroke-opacity":1}},{"type":"Feature","geometry":{"type":"LineString","coordinates":[[-78.847776,-2.738042],[-78.847983,-2.738034],[-78.848229,-2.738056],[-78.848303,-2.738075],[-78.848461,-2.738116],[-78.848544,-2.738149],[-78.848602,-2.738165],[-78.848653,-2.738186]]},"properties":{"id":38,"route_id":6,"name":"Tramo 38 R6","description":"Tramo 38 R6","stroke":"#BDB76B","stroke-width":4,"stroke-opacity":1}},{"type":"Feature","geometry":{"type":"LineString","coordinates":[[-78.846923,-2.737874],[-78.846594,-2.737791]]},"properties":{"id":154,"route_id":6,"name":"Tramo 154 R6","description":"Tramo 154 R6","stroke":"#BDB76B","stroke-width":4,"stroke-opacity":1}},{"type":"Feature","geometry":{"type":"LineString","coordinates":[[-78.846747,-2.738917],[-78.846348,-2.738801]]},"properties":{"id":26,"route_id":7,"name":"Tramo 26 R7","description":"Tramo 26 R7","stroke":"#FF0000","stroke-width":4,"stroke-opacity":1}},{"type":"Feature","geometry":{"type":"LineString","coordinates":[[-78.846977,-2.738373],[-78.847359,-2.738533],[-78.847599,-2.738631],[-78.847706,-2.738671]]},"properties":{"id":37,"route_id":7,"name":"Tramo 37 R7","description":"Tramo 37 R7","stroke":"#FF0000","stroke-width":4,"stroke-opacity":1}},{"type":"Feature","geometry":{"type":"LineString","coordinates":[[-78.847553,-2.739154],[-78.846819,-2.738948]]},"properties":{"id":42,"route_id":7,"name":"Tramo 42 R7","description":"Tramo 42 R7","stroke":"#FF0000","stroke-width":4,"stroke-opacity":1}},{"type":"Feature","geometry":{"type":"LineString","coordinates":[[-78.84691,-2.738356],[-78.846666,-2.738312],[-78.846446,-2.738268]]},"properties":{"id":155,"route_id":7,"name":"Tramo 155 R7","description":"Tramo 155 R7","stroke":"#FF0000","stroke-width":4,"stroke-opacity":1}},{"type":"Feature","geometry":{"type":"LineString","coordinates":[[-78.846415,-2.738312],[-78.846325,-2.738753]]},"properties":{"id":181,"route_id":7,"name":"Tramo 181 R7","description":"Tramo 181 R7","stroke":"#FF0000","stroke-width":4,"stroke-opacity":1}},{"type":"Feature","geometry":{"type":"LineString","coordinates":[[-78.848682,-2.738237],[-78.848505,-2.738951]]},"properties":{"id":30,"route_id":8,"name":"Tramo 30 R8","description":"Tramo 30 R8","stroke":"#00BFFF","stroke-width":4,"stroke-opacity":1}},{"type":"Feature","geometry":{"type":"LineString","coordinates":[[-78.848489,-2.739019],[-78.8484,-2.739375]]},"properties":{"id":31,"route_id":8,"name":"Tramo 31 R8","description":"Tramo 31 R8","stroke":"#00BFFF","stroke-width":4,"stroke-opacity":1}},{"type":"Feature","geometry":{"type":"LineString","coordinates":[[-78.848535,-2.738996],[-78.849324,-2.739213]]},"properties":{"id":33,"route_id":8,"name":"Tramo 33 R8","description":"Tramo 33 R8","stroke":"#00BFFF","stroke-width":4,"stroke-opacity":1}},{"type":"Feature","geometry":{"type":"LineString","coordinates":[[-78.848459,-2.738972],[-78.847776,-2.738702]]},"properties":{"id":35,"route_id":8,"name":"Tramo 35 R8","description":"Tramo 35 R8","stroke":"#00BFFF","stroke-width":4,"stroke-opacity":1}},{"type":"Feature","geometry":{"type":"LineString","coordinates":[[-78.847731,-2.738727],[-78.847604,-2.739109]]},"properties":{"id":36,"route_id":7,"name":"Tramo 36 R7","description":"Tramo 36 R7","stroke":"#FF0000","stroke-width":4,"stroke-opacity":1}},{"type":"Feature","geometry":{"type":"LineString","coordinates":[[-78.849417,-2.739201],[-78.849479,-2.738749],[-78.849454,-2.738506],[-78.84943,-2.738276]]},"properties":{"id":98,"route_id":8,"name":"Tramo 98 R8","description":"Tramo 98 R8","stroke":"#00BFFF","stroke-width":4,"stroke-opacity":1}},{"type":"Feature","geometry":{"type":"LineString","coordinates":[[-78.849191,-2.737396],[-78.849403,-2.73818]]},"properties":{"id":99,"route_id":8,"name":"Tramo 99 R8","description":"Tramo 99 R8","stroke":"#00BFFF","stroke-width":4,"stroke-opacity":1}},{"type":"Feature","geometry":{"type":"LineString","coordinates":[[-78.846771,-2.738979],[-78.846551,-2.739723]]},"properties":{"id":44,"route_id":9,"name":"Tramo 44 R9","description":"Tramo 44 R9","stroke":"#8B0000","stroke-width":4,"stroke-opacity":1}},{"type":"Feature","geometry":{"type":"LineString","coordinates":[[-78.846532,-2.739793],[-78.846448,-2.740097]]},"properties":{"id":45,"route_id":9,"name":"Tramo 45 R9","description":"Tramo 45 R9","stroke":"#8B0000","stroke-width":4,"stroke-opacity":1}},{"type":"Feature","geometry":{"type":"LineString","coordinates":[[-78.846424,-2.740176],[-78.846252,-2.740778]]},"properties":{"id":46,"route_id":9,"name":"Tramo 46 R9","description":"Tramo 46 R9","stroke":"#8B0000","stroke-width":4,"stroke-opacity":1}},{"type":"Feature","geometry":{"type":"LineString","coordinates":[[-78.846093,-2.740796],[-78.846299,-2.740847],[-78.846678,-2.740943],[-78.847036,-2.741041]]},"properties":{"id":47,"route_id":9,"name":"Tramo 47 R9","description":"Tramo 47 R9","stroke":"#8B0000","stroke-width":4,"stroke-opacity":1}},{"type":"Feature","geometry":{"type":"LineString","coordinates":[[-78.846118,-2.740026],[-78.846405,-2.740126]]},"properties":{"id":48,"route_id":9,"name":"Tramo 48 R9","description":"Tramo 48 R9","stroke":"#8B0000","stroke-width":4,"stroke-opacity":1}},{"type":"Feature","geometry":{"type":"LineString","coordinates":[[-78.847212,-2.740389],[-78.846462,-2.740146]]},"properties":{"id":49,"route_id":9,"name":"Tramo 49 R9","description":"Tramo 49 R9","stroke":"#8B0000","stroke-width":4,"stroke-opacity":1}},{"type":"Feature","geometry":{"type":"LineString","coordinates":[[-78.846081,-2.740056],[-78.846018,-2.740363],[-78.846041,-2.740521],[-78.846054,-2.740757]]},"properties":{"id":178,"route_id":9,"name":"Tramo 178 R9","description":"Tramo 178 R9","stroke":"#8B0000","stroke-width":4,"stroke-opacity":1}},{"type":"Feature","geometry":{"type":"LineString","coordinates":[[-78.846182,-2.739662],[-78.846514,-2.739749]]},"properties":{"id":186,"route_id":9,"name":"Tramo 186 R9","description":"Tramo 186 R9","stroke":"#8B0000","stroke-width":4,"stroke-opacity":1}},{"type":"Feature","geometry":{"type":"LineString","coordinates":[[-78.849206,-2.739672],[-78.848428,-2.739423]]},"properties":{"id":32,"route_id":10,"name":"Tramo 32 R10","description":"Tramo 32 R10","stroke":"#00008B","stroke-width":4,"stroke-opacity":1}},{"type":"Feature","geometry":{"type":"LineString","coordinates":[[-78.847628,-2.739175],[-78.848363,-2.739411]]},"properties":{"id":43,"route_id":10,"name":"Tramo 43 R10","description":"Tramo 43 R10","stroke":"#00008B","stroke-width":4,"stroke-opacity":1}},{"type":"Feature","geometry":{"type":"LineString","coordinates":[[-78.848243,-2.740167],[-78.848942,-2.740356]]},"properties":{"id":52,"route_id":10,"name":"Trano 52 R10","description":"Trano 52 R10","stroke":"#00008B","stroke-width":4,"stroke-opacity":1}},{"type":"Feature","geometry":{"type":"LineString","coordinates":[[-78.848377,-2.739452],[-78.84821,-2.740121]]},"properties":{"id":54,"route_id":10,"name":"Tramo 54 R10","description":"Tramo 54 R10","stroke":"#00008B","stroke-width":4,"stroke-opacity":1}},{"type":"Feature","geometry":{"type":"LineString","coordinates":[[-78.849019,-2.740329],[-78.849208,-2.739712],[-78.849319,-2.739749],[-78.849115,-2.740367]]},"properties":{"id":96,"route_id":10,"name":"Tramo 96 R10","description":"Tramo 96 R10","stroke":"#00008B","stroke-width":4,"stroke-opacity":1}},{"type":"Feature","geometry":{"type":"LineString","coordinates":[[-78.8494,-2.739264],[-78.849319,-2.739619]]},"properties":{"id":97,"route_id":10,"name":"Tramo 97 R10","description":"Tramo 97 R10","stroke":"#00008B","stroke-width":4,"stroke-opacity":1}},{"type":"Feature","geometry":{"type":"LineString","coordinates":[[-78.8479,-2.741288],[-78.847588,-2.742387]]},"properties":{"id":55,"route_id":11,"name":"Tramo 55 R11","description":"Tramo 55 R11","stroke":"#008080","stroke-width":4,"stroke-opacity":1}},{"type":"Feature","geometry":{"type":"LineString","coordinates":[[-78.848053,-2.740734],[-78.847906,-2.741235]]},"properties":{"id":56,"route_id":11,"name":"Tramo 56 R11","description":"Tramo 56 R11","stroke":"#008080","stroke-width":4,"stroke-opacity":1}},{"type":"Feature","geometry":{"type":"LineString","coordinates":[[-78.848087,-2.740697],[-78.848766,-2.740925]]},"properties":{"id":58,"route_id":11,"name":"Tramo 58 R11","description":"Tramo 58 R11","stroke":"#008080","stroke-width":4,"stroke-opacity":1}},{"type":"Feature","geometry":{"type":"LineString","coordinates":[[-78.847861,-2.741265],[-78.847098,-2.74105]]},"properties":{"id":59,"route_id":11,"name":"Tramo 59 R11","description":"Tramo 59 R11","stroke":"#008080","stroke-width":4,"stroke-opacity":1}},{"type":"Feature","geometry":{"type":"LineString","coordinates":[[-78.848645,-2.741461],[-78.847912,-2.741289]]},"properties":{"id":60,"route_id":11,"name":"Tramo 60 R11","description":"Tramo 60 R11","stroke":"#008080","stroke-width":4,"stroke-opacity":1}},{"type":"Feature","geometry":{"type":"LineString","coordinates":[[-78.84869,-2.741498],[-78.848359,-2.74252]]},"properties":{"id":93,"route_id":11,"name":"Tramo 93 R11","description":"Tramo 93 R11","stroke":"#008080","stroke-width":4,"stroke-opacity":1}},{"type":"Feature","geometry":{"type":"LineString","coordinates":[[-78.848864,-2.740974],[-78.848705,-2.741458]]},"properties":{"id":94,"route_id":11,"name":"Tramo 94 R11","description":"Tramo 94 R11","stroke":"#008080","stroke-width":4,"stroke-opacity":1}},{"type":"Feature","geometry":{"type":"LineString","coordinates":[[-78.848845,-2.740886],[-78.848994,-2.740395],[-78.849091,-2.740427],[-78.848934,-2.740923]]},"properties":{"id":95,"route_id":11,"name":"Tramo 95 R11","description":"Tramo 95 R11","stroke":"#008080","stroke-width":4,"stroke-opacity":1}},{"type":"Feature","geometry":{"type":"LineString","coordinates":[[-78.847365,-2.739984],[-78.847264,-2.740379]]},"properties":{"id":40,"route_id":12,"name":"Tramo 40 R12","description":"Tramo 40 R12","stroke":"#FFD700","stroke-width":4,"stroke-opacity":1}},{"type":"Feature","geometry":{"type":"LineString","coordinates":[[-78.846588,-2.739763],[-78.847323,-2.739948]]},"properties":{"id":50,"route_id":12,"name":"Tramo 50 R12","description":"Tramo 50 R12","stroke":"#FFD700","stroke-width":4,"stroke-opacity":1}},{"type":"Feature","geometry":{"type":"LineString","coordinates":[[-78.848156,-2.740149],[-78.847397,-2.739954]]},"properties":{"id":51,"route_id":12,"name":"Tramo 51 R12","description":"Tramo 51 R12","stroke":"#FFD700","stroke-width":4,"stroke-opacity":1}},{"type":"Feature","geometry":{"type":"LineString","coordinates":[[-78.848188,-2.74019],[-78.848073,-2.740648]]},"properties":{"id":53,"route_id":12,"name":"Tramo 53 R12","description":"Tramo 53 R12","stroke":"#FFD700","stroke-width":4,"stroke-opacity":1}},{"type":"Feature","geometry":{"type":"LineString","coordinates":[[-78.848062,-2.740688],[-78.847275,-2.74042]]},"properties":{"id":57,"route_id":12,"name":"Tramo 57 R12","description":"Tramo 57 R12","stroke":"#FFD700","stroke-width":4,"stroke-opacity":1}},{"type":"Feature","geometry":{"type":"LineString","coordinates":[[-78.84724,-2.74044],[-78.847092,-2.741016]]},"properties":{"id":39,"route_id":13,"name":"Tramo 39 R13","description":"Tramo 39 R13","stroke":"#FF1493","stroke-width":4,"stroke-opacity":1}},{"type":"Feature","geometry":{"type":"LineString","coordinates":[[-78.847078,-2.741079],[-78.846798,-2.742232]]},"properties":{"id":61,"route_id":13,"name":"Tramo 61 R13","description":"Tramo 61 R13","stroke":"#FF1493","stroke-width":4,"stroke-opacity":1}},{"type":"Feature","geometry":{"type":"LineString","coordinates":[[-78.846743,-2.742248],[-78.84635,-2.742178]]},"properties":{"id":62,"route_id":12,"name":"Tramo 62 R 12","description":"Tramo 62 R 12","stroke":"#FFD700","stroke-width":4,"stroke-opacity":1}},{"type":"Feature","geometry":{"type":"LineString","coordinates":[[-78.846831,-2.742263],[-78.847563,-2.742398]]},"properties":{"id":62,"route_id":13,"name":"Tramo 62 R13","description":"Tramo 62 R13","stroke":"#FF1493","stroke-width":4,"stroke-opacity":1}},{"type":"Feature","geometry":{"type":"LineString","coordinates":[[-78.847589,-2.742418],[-78.848287,-2.742539]]},"properties":{"id":64,"route_id":13,"name":"Tramo 64 R13","description":"Tramo 64 R13","stroke":"#FF1493","stroke-width":4,"stroke-opacity":1}},{"type":"Feature","geometry":{"type":"LineString","coordinates":[[-78.846301,-2.742167],[-78.846167,-2.741501],[-78.846061,-2.740829]]},"properties":{"id":177,"route_id":13,"name":"Tramo 177 R13","description":"Tramo 177 R13","stroke":"#FF1493","stroke-width":4,"stroke-opacity":1}},{"type":"Feature","geometry":{"type":"LineString","coordinates":[[-78.84585,-2.740846],[-78.845887,-2.741006],[-78.845912,-2.741121],[-78.845959,-2.741296],[-78.845999,-2.741471],[-78.846049,-2.74171],[-78.846057,-2.741731],[-78.846062,-2.741746],[-78.846083,-2.741836],[-78.846083,-2.741967],[-78.846079,-2.742127],[-78.846074,-2.742192],[-78.846076,-2.742287],[-78.846069,-2.742453],[-78.846076,-2.742641],[-78.84607,-2.742682]]},"properties":{"id":73,"route_id":14,"name":"Tramo 73 R14","description":"Tramo 73 R14","stroke":"#4169E1","stroke-width":4,"stroke-opacity":1}},{"type":"Feature","geometry":{"type":"LineString","coordinates":[[-78.845673,-2.739786],[-78.845658,-2.74007],[-78.845662,-2.740146],[-78.845667,-2.740221],[-78.845666,-2.740282],[-78.845692,-2.740363],[-78.845715,-2.740418],[-78.845741,-2.740477],[-78.845779,-2.740596],[-78.845807,-2.740695],[-78.845834,-2.740787]]},"properties":{"id":74,"route_id":14,"name":"Tramo 74 R14","description":"Tramo 74 R14","stroke":"#4169E1","stroke-width":4,"stroke-opacity":1}},{"type":"Feature","geometry":{"type":"LineString","coordinates":[[-78.845663,-2.739793],[-78.845654,-2.739992],[-78.845644,-2.740083],[-78.845667,-2.740224],[-78.845682,-2.740338],[-78.845709,-2.740412],[-78.845741,-2.740477],[-78.845775,-2.740582],[-78.84584,-2.740824],[-78.845889,-2.741025],[-78.845908,-2.741081],[-78.845921,-2.741148],[-78.845947,-2.741271],[-78.845973,-2.741381],[-78.846003,-2.741498],[-78.846029,-2.741639],[-78.846068,-2.741791],[-78.846082,-2.741834],[-78.846082,-2.741949],[-78.846083,-2.742034],[-78.846081,-2.742174],[-78.846077,-2.742319],[-78.846075,-2.742454],[-78.846072,-2.742582],[-78.846072,-2.742675]]},"properties":{"id":75,"route_id":14,"name":"Tramo 75 R14","description":"Tramo 75 R14","stroke":"#4169E1","stroke-width":4,"stroke-opacity":1}},{"type":"Feature","geometry":{"type":"LineString","coordinates":[[-78.846063,-2.742722],[-78.846063,-2.742978]]},"properties":{"id":76,"route_id":14,"name":"Tramo 76 R14","description":"Tramo 76 R14","stroke":"#4169E1","stroke-width":4,"stroke-opacity":1}},{"type":"Feature","geometry":{"type":"LineString","coordinates":[[-78.846064,-2.743039],[-78.846061,-2.743333]]},"properties":{"id":77,"route_id":14,"name":"Tramo 77 R14","description":"Tramo 77 R14","stroke":"#4169E1","stroke-width":4,"stroke-opacity":1}},{"type":"Feature","geometry":{"type":"LineString","coordinates":[[-78.844008,-2.739944],[-78.843864,-2.74057],[-78.843816,-2.740718],[-78.843798,-2.740792],[-78.843789,-2.740865],[-78.843773,-2.740987],[-78.843775,-2.741077],[-78.843774,-2.741263],[-78.843773,-2.741371]]},"properties":{"id":112,"route_id":14,"name":"Tramo 112 R14","description":"Tramo 112 R14","stroke":"#4169E1","stroke-width":4,"stroke-opacity":1}},{"type":"Feature","geometry":{"type":"LineString","coordinates":[[-78.843795,-2.740804],[-78.843774,-2.740972],[-78.843779,-2.741133],[-78.843769,-2.741315],[-78.843797,-2.741409],[-78.843849,-2.741435],[-78.843871,-2.741667],[-78.84388,-2.741719],[-78.843905,-2.741761],[-78.843973,-2.741798],[-78.844138,-2.741814],[-78.844415,-2.741851],[-78.844656,-2.741877],[-78.844884,-2.741888],[-78.845026,-2.741906]]},"properties":{"id":113,"route_id":14,"name":"Tramo 113 R 14","description":"Tramo 113 R 14","stroke":"#4169E1","stroke-width":4,"stroke-opacity":1}},{"type":"Feature","geometry":{"type":"LineString","coordinates":[[-78.845075,-2.741872],[-78.84511,-2.741593],[-78.845126,-2.74133],[-78.845152,-2.741138],[-78.845214,-2.740904]]},"properties":{"id":114,"route_id":14,"name":"Tramo 114 R14","description":"Tramo 114 R14","stroke":"#4169E1","stroke-width":4,"stroke-opacity":1}},{"type":"Feature","geometry":{"type":"LineString","coordinates":[[-78.845064,-2.741947],[-78.845155,-2.742671]]},"properties":{"id":115,"route_id":14,"name":"Tramo 115 R14","description":"Tramo 115 R14","stroke":"#4169E1","stroke-width":4,"stroke-opacity":1}},{"type":"Feature","geometry":{"type":"LineString","coordinates":[[-78.84521,-2.742707],[-78.845811,-2.742669],[-78.84605,-2.742698]]},"properties":{"id":116,"route_id":14,"name":"Tramo 116 R14","description":"Tramo 116 R14","stroke":"#4169E1","stroke-width":4,"stroke-opacity":1}},{"type":"Feature","geometry":{"type":"LineString","coordinates":[[-78.845153,-2.742722],[-78.845159,-2.74282],[-78.84515,-2.742958],[-78.845117,-2.743086]]},"properties":{"id":117,"route_id":14,"name":"Tramo 117 R14","description":"Tramo 117 R14","stroke":"#4169E1","stroke-width":4,"stroke-opacity":1}},{"type":"Feature","geometry":{"type":"LineString","coordinates":[[-78.84602,-2.743009],[-78.845192,-2.742966]]},"properties":{"id":118,"route_id":14,"name":"Tramo 118 R14","description":"Tramo 118 R14","stroke":"#4169E1","stroke-width":4,"stroke-opacity":1}},{"type":"Feature","geometry":{"type":"LineString","coordinates":[[-78.845115,-2.74315],[-78.845092,-2.743439]]},"properties":{"id":119,"route_id":14,"name":"Tramo 119 R14","description":"Tramo 119 R14","stroke":"#4169E1","stroke-width":4,"stroke-opacity":1}},{"type":"Feature","geometry":{"type":"LineString","coordinates":[[-78.845135,-2.743473],[-78.846028,-2.743355]]},"properties":{"id":120,"route_id":14,"name":"Tramo 120 R14","description":"Tramo 120 R14","stroke":"#4169E1","stroke-width":4,"stroke-opacity":1}},{"type":"Feature","geometry":{"type":"LineString","coordinates":[[-78.845096,-2.743524],[-78.845114,-2.74386],[-78.845122,-2.744212]]},"properties":{"id":121,"route_id":14,"name":"Tramo 121 R14","description":"Tramo 121 R14","stroke":"#4169E1","stroke-width":4,"stroke-opacity":1}},{"type":"Feature","geometry":{"type":"LineString","coordinates":[[-78.846106,-2.743381],[-78.846559,-2.743446]]},"properties":{"id":122,"route_id":14,"name":"Tramo 122 R14 ","description":"Tramo 122 R14 ","stroke":"#4169E1","stroke-width":4,"stroke-opacity":1}},{"type":"Feature","geometry":{"type":"LineString","coordinates":[[-78.846087,-2.743454],[-78.846272,-2.743951]]},"properties":{"id":125,"route_id":14,"name":"Tramo 125 R14","description":"Tramo 125 R14","stroke":"#4169E1","stroke-width":4,"stroke-opacity":1}},{"type":"Feature","geometry":{"type":"LineString","coordinates":[[-78.84629,-2.744013],[-78.846305,-2.744123],[-78.846309,-2.744239],[-78.846292,-2.744356],[-78.846279,-2.744436],[-78.846274,-2.744506],[-78.84627,-2.744572],[-78.846266,-2.744618]]},"properties":{"id":126,"route_id":14,"name":"Tramo 126 R14","description":"Tramo 126 R14","stroke":"#4169E1","stroke-width":4,"stroke-opacity":1}},{"type":"Feature","geometry":{"type":"LineString","coordinates":[[-78.846251,-2.744785],[-78.846263,-2.744853],[-78.846273,-2.744912],[-78.846288,-2.744982],[-78.846345,-2.745193],[-78.846401,-2.745336]]},"properties":{"id":127,"route_id":14,"name":"Tramo 127 R14","description":"Tramo 127 R14","stroke":"#4169E1","stroke-width":4,"stroke-opacity":1}},{"type":"Feature","geometry":{"type":"LineString","coordinates":[[-78.843757,-2.741458],[-78.843768,-2.741545],[-78.84377,-2.741618],[-78.843777,-2.741687],[-78.843785,-2.741772],[-78.843754,-2.741846],[-78.843709,-2.74189],[-78.84358,-2.741977],[-78.843549,-2.742036],[-78.843517,-2.742123]]},"properties":{"id":173,"route_id":14,"name":"Tramo 173 R14","description":"Tramo 173 R14","stroke":"#4169E1","stroke-width":4,"stroke-opacity":1}},{"type":"Feature","geometry":{"type":"LineString","coordinates":[[-78.843529,-2.742074],[-78.843396,-2.742291],[-78.84334,-2.742369],[-78.84329,-2.742433],[-78.843151,-2.742509]]},"properties":{"id":174,"route_id":14,"name":"Tramo 174 R14 ","description":"Tramo 174 R14 ","stroke":"#4169E1","stroke-width":4,"stroke-opacity":1}},{"type":"Feature","geometry":{"type":"LineString","coordinates":[[-78.84442,-2.741888],[-78.844386,-2.74249]]},"properties":{"id":175,"route_id":14,"name":"Tramo 175 R14","description":"Tramo 175 R14","stroke":"#4169E1","stroke-width":4,"stroke-opacity":1}},{"type":"Feature","geometry":{"type":"LineString","coordinates":[[-78.844991,-2.739362],[-78.844174,-2.739175]]},"properties":{"id":67,"route_id":15,"name":"Tramo 67 R15","description":"Tramo 67 R15","stroke":"#A52A2A","stroke-width":4,"stroke-opacity":1}},{"type":"Feature","geometry":{"type":"LineString","coordinates":[[-78.846115,-2.739645],[-78.845727,-2.73956]]},"properties":{"id":63,"route_id":15,"name":"Tramo 63 R15","description":"Tramo 63 R15","stroke":"#A52A2A","stroke-width":4,"stroke-opacity":1}},{"type":"Feature","geometry":{"type":"LineString","coordinates":[[-78.845649,-2.739732],[-78.845533,-2.73984],[-78.845422,-2.739966],[-78.845261,-2.740133],[-78.84506,-2.740341],[-78.844978,-2.740419],[-78.844897,-2.740483],[-78.844834,-2.740527],[-78.844746,-2.740567],[-78.844658,-2.740581],[-78.844518,-2.740618],[-78.844513,-2.74062],[-78.844493,-2.740625],[-78.844304,-2.740656],[-78.84414,-2.740687],[-78.844048,-2.740705],[-78.84396,-2.740721],[-78.843848,-2.740748]]},"properties":{"id":70,"route_id":15,"name":"Tramo 70 R15","description":"Tramo 70 R15","stroke":"#A52A2A","stroke-width":4,"stroke-opacity":1}},{"type":"Feature","geometry":{"type":"LineString","coordinates":[[-78.845156,-2.742665],[-78.845067,-2.74193],[-78.845101,-2.74169],[-78.845115,-2.741448],[-78.845144,-2.741215],[-78.84519,-2.741007],[-78.845221,-2.740917]]},"properties":{"id":71,"route_id":15,"name":"Tramo 71 R15","description":"Tramo 71 R15","stroke":"#A52A2A","stroke-width":4,"stroke-opacity":1}},{"type":"Feature","geometry":{"type":"LineString","coordinates":[[-78.845807,-2.740819],[-78.845229,-2.740908]]},"properties":{"id":72,"route_id":15,"name":"Tramo 72 R15","description":"Tramo 72 R15","stroke":"#A52A2A","stroke-width":4,"stroke-opacity":1}},{"type":"Feature","geometry":{"type":"LineString","coordinates":[[-78.844339,-2.738304],[-78.84419,-2.739126]]},"properties":{"id":110,"route_id":15,"name":"Tramo 110 R15","description":"Tramo 110 R15","stroke":"#A52A2A","stroke-width":4,"stroke-opacity":1}},{"type":"Feature","geometry":{"type":"LineString","coordinates":[[-78.844144,-2.739238],[-78.84402,-2.739936],[-78.843804,-2.74077]]},"properties":{"id":169,"route_id":15,"name":"Tramo 169 R15","description":"Tramo 169 R15","stroke":"#A52A2A","stroke-width":4,"stroke-opacity":1}},{"type":"Feature","geometry":{"type":"LineString","coordinates":[[-78.842975,-2.738905],[-78.842946,-2.739092],[-78.842901,-2.739267],[-78.842878,-2.739354],[-78.842823,-2.739527]]},"properties":{"id":170,"route_id":15,"name":"Tramo 170 R15","description":"Tramo 170 R15","stroke":"#A52A2A","stroke-width":4,"stroke-opacity":1}},{"type":"Feature","geometry":{"type":"LineString","coordinates":[[-78.84351,-2.738209],[-78.843404,-2.738243],[-78.843327,-2.738301],[-78.843254,-2.738366],[-78.843182,-2.738442],[-78.843129,-2.738519],[-78.843056,-2.738609],[-78.843006,-2.738773],[-78.842998,-2.738856]]},"properties":{"id":171,"route_id":15,"name":"Tramo 171 R15","description":"Tramo 171 R15","stroke":"#A52A2A","stroke-width":4,"stroke-opacity":1}},{"type":"Feature","geometry":{"type":"LineString","coordinates":[[-78.842764,-2.739616],[-78.842713,-2.739647],[-78.842652,-2.739707],[-78.842558,-2.739791],[-78.842538,-2.739854],[-78.842536,-2.739908],[-78.842538,-2.739966],[-78.842538,-2.740057],[-78.842524,-2.740157],[-78.842505,-2.740217],[-78.842476,-2.740287],[-78.842458,-2.740337],[-78.842422,-2.740373],[-78.842396,-2.740398],[-78.84237,-2.740422]]},"properties":{"id":172,"route_id":15,"name":"Tramo 172 R15","description":"Tramo 172 R15","stroke":"#A52A2A","stroke-width":4,"stroke-opacity":1}},{"type":"Feature","geometry":{"type":"LineString","coordinates":[[-78.846137,-2.739695],[-78.846089,-2.739983]]},"properties":{"id":179,"route_id":15,"name":"Tramo 179 R15","description":"Tramo 179 R15","stroke":"#A52A2A","stroke-width":4,"stroke-opacity":1}},{"type":"Feature","geometry":{"type":"LineString","coordinates":[[-78.847571,-2.742437],[-78.847283,-2.743585]]},"properties":{"id":78,"route_id":16,"name":"Tramo 78 R16","description":"Tramo 78 R16","stroke":"#008000","stroke-width":4,"stroke-opacity":1}},{"type":"Feature","geometry":{"type":"LineString","coordinates":[[-78.847258,-2.743749],[-78.846992,-2.744721]]},"properties":{"id":79,"route_id":16,"name":"Tramo 79 R16","description":"Tramo 79 R16","stroke":"#008000","stroke-width":4,"stroke-opacity":1}},{"type":"Feature","geometry":{"type":"LineString","coordinates":[[-78.846609,-2.743535],[-78.846668,-2.743888],[-78.84669,-2.744058],[-78.846688,-2.744281],[-78.84668,-2.744415],[-78.846659,-2.744609],[-78.846653,-2.744686]]},"properties":{"id":80,"route_id":16,"name":"Tramo 80 R16","description":"Tramo 80 R16","stroke":"#008000","stroke-width":4,"stroke-opacity":1}},{"type":"Feature","geometry":{"type":"LineString","coordinates":[[-78.848344,-2.742616],[-78.847961,-2.743769]]},"properties":{"id":92,"route_id":16,"name":"Tramo 92 R16","description":"Tramo 92 R16","stroke":"#008000","stroke-width":4,"stroke-opacity":1}},{"type":"Feature","geometry":{"type":"LineString","coordinates":[[-78.84662,-2.743447],[-78.847233,-2.743638]]},"properties":{"id":123,"route_id":16,"name":"Tramo 123 R16","description":"Tramo 123 R16","stroke":"#008000","stroke-width":4,"stroke-opacity":1}},{"type":"Feature","geometry":{"type":"LineString","coordinates":[[-78.847882,-2.743819],[-78.84729,-2.743638]]},"properties":{"id":124,"route_id":16,"name":"Tramo 124 R16","description":"Tramo 124 R16","stroke":"#008000","stroke-width":4,"stroke-opacity":1}},{"type":"Feature","geometry":{"type":"LineString","coordinates":[[-78.846302,-2.744653],[-78.846661,-2.744721],[-78.846664,-2.744806],[-78.846272,-2.744733]]},"properties":{"id":128,"route_id":16,"name":"Tramo 128 R16","description":"Tramo 128 R16","stroke":"#008000","stroke-width":4,"stroke-opacity":1}},{"type":"Feature","geometry":{"type":"LineString","coordinates":[[-78.846668,-2.744864],[-78.846645,-2.745528]]},"properties":{"id":129,"route_id":16,"name":"Tramo 129 R16","description":"Tramo 129 R16","stroke":"#008000","stroke-width":4,"stroke-opacity":1}},{"type":"Feature","geometry":{"type":"LineString","coordinates":[[-78.846712,-2.744725],[-78.846959,-2.744784],[-78.846923,-2.744872],[-78.846705,-2.744824]]},"properties":{"id":130,"route_id":16,"name":"Tramo 130 R16","description":"Tramo 130 R16","stroke":"#008000","stroke-width":4,"stroke-opacity":1}},{"type":"Feature","geometry":{"type":"LineString","coordinates":[[-78.847009,-2.74483],[-78.847593,-2.744952]]},"properties":{"id":131,"route_id":16,"name":"Tramo 131 R16","description":"Tramo 131 R16","stroke":"#008000","stroke-width":4,"stroke-opacity":1}},{"type":"Feature","geometry":{"type":"LineString","coordinates":[[-78.847641,-2.74507],[-78.847139,-2.746959],[-78.846977,-2.747257],[-78.846922,-2.747351],[-78.846844,-2.747487],[-78.846773,-2.747535],[-78.84674,-2.74765],[-78.846728,-2.747704],[-78.846728,-2.747744]]},"properties":{"id":132,"route_id":16,"name":"Tramo 132 R16","description":"Tramo 132 R16","stroke":"#008000","stroke-width":4,"stroke-opacity":1}},{"type":"Feature","geometry":{"type":"LineString","coordinates":[[-78.847749,-2.744999],[-78.848094,-2.74507]]},"properties":{"id":134,"route_id":16,"name":"Tramo 134 R16","description":"Tramo 134 R16","stroke":"#008000","stroke-width":4,"stroke-opacity":1}},{"type":"Feature","geometry":{"type":"LineString","coordinates":[[-78.848114,-2.745152],[-78.848089,-2.745313],[-78.848047,-2.74552],[-78.847954,-2.745781],[-78.847913,-2.745882],[-78.84789,-2.745979],[-78.84785,-2.746083],[-78.847802,-2.74621],[-78.847723,-2.746418],[-78.847678,-2.746579],[-78.847638,-2.746687],[-78.847564,-2.746898],[-78.847511,-2.747044],[-78.847445,-2.747224]]},"properties":{"id":135,"route_id":16,"name":"Tramo 135 R16","description":"Tramo 135 R16","stroke":"#008000","stroke-width":4,"stroke-opacity":1}},{"type":"Feature","geometry":{"type":"LineString","coordinates":[[-78.847894,-2.743885],[-78.847664,-2.744885]]},"properties":{"id":136,"route_id":16,"name":"Tramo 136 R16","description":"Tramo 136 R16","stroke":"#008000","stroke-width":4,"stroke-opacity":1}},{"type":"Feature","geometry":{"type":"LineString","coordinates":[[-78.848297,-2.744063],[-78.848243,-2.744453],[-78.848132,-2.744976]]},"properties":{"id":137,"route_id":16,"name":"Tramo 137 R16","description":"Tramo 137 R16","stroke":"#008000","stroke-width":4,"stroke-opacity":1}},{"type":"Feature","geometry":{"type":"LineString","coordinates":[[-78.846333,-2.742218],[-78.84658,-2.743394]]},"properties":{"id":176,"route_id":16,"name":"Tramo 176 R16","description":"Tramo 176 R16","stroke":"#008000","stroke-width":4,"stroke-opacity":1}},{"type":"Feature","geometry":{"type":"LineString","coordinates":[[-78.846709,-2.747817],[-78.846604,-2.748231],[-78.84656,-2.748396],[-78.846445,-2.748624],[-78.846255,-2.749028],[-78.846087,-2.749441],[-78.845937,-2.749779],[-78.845879,-2.749891],[-78.84583,-2.75008],[-78.845733,-2.750396],[-78.845596,-2.7508],[-78.845536,-2.750878]]},"properties":{"id":201,"route_id":16,"name":"Tramo 201 R16","description":"Tramo 201 R16","stroke":"#008000","stroke-width":4,"stroke-opacity":1}},{"type":"Feature","geometry":{"type":"LineString","coordinates":[[-78.846065,-2.753107],[-78.846021,-2.753137],[-78.845963,-2.75315],[-78.845871,-2.75315],[-78.845777,-2.753105],[-78.845698,-2.753037],[-78.845642,-2.752824],[-78.84538,-2.751716],[-78.845351,-2.751568],[-78.845355,-2.751427],[-78.845389,-2.751217],[-78.845486,-2.750997],[-78.845413,-2.750734],[-78.845357,-2.751144]]},"properties":{"id":202,"route_id":16,"name":"Tramo 202 R16","description":"Tramo 202 R16","stroke":"#008000","stroke-width":4,"stroke-opacity":1}},{"type":"Feature","geometry":{"type":"LineString","coordinates":[[-78.848471,-2.742602],[-78.848941,-2.742701]]},"properties":{"id":81,"route_id":17,"name":"Tramo 81 R17","description":"Tramo 81 R17","stroke":"#FFA500","stroke-width":4,"stroke-opacity":1}},{"type":"Feature","geometry":{"type":"LineString","coordinates":[[-78.849486,-2.740537],[-78.849345,-2.741072]]},"properties":{"id":85,"route_id":17,"name":"Tramo 85 R17","description":"Tramo 85 R17","stroke":"#FFA500","stroke-width":4,"stroke-opacity":1}},{"type":"Feature","geometry":{"type":"LineString","coordinates":[[-78.849146,-2.740404],[-78.849461,-2.740489]]},"properties":{"id":86,"route_id":17,"name":"Tramo 86 R17","description":"Tramo 86 R17","stroke":"#FFA500","stroke-width":4,"stroke-opacity":1}},{"type":"Feature","geometry":{"type":"LineString","coordinates":[[-78.849673,-2.739844],[-78.849583,-2.740167],[-78.849506,-2.740466]]},"properties":{"id":88,"route_id":17,"name":"Tramo 88 R17","description":"Tramo 88 R17","stroke":"#FFA500","stroke-width":4,"stroke-opacity":1}},{"type":"Feature","geometry":{"type":"LineString","coordinates":[[-78.849359,-2.739707],[-78.849654,-2.739796]]},"properties":{"id":89,"route_id":17,"name":"Tamo 89 R17","description":"Tamo 89 R17","stroke":"#FFA500","stroke-width":4,"stroke-opacity":1}},{"type":"Feature","geometry":{"type":"LineString","coordinates":[[-78.848563,-2.742671],[-78.848346,-2.743845]]},"properties":{"id":138,"route_id":17,"name":"Tramo 138 R17","description":"Tramo 138 R17","stroke":"#FFA500","stroke-width":4,"stroke-opacity":1}},{"type":"Feature","geometry":{"type":"LineString","coordinates":[[-78.848945,-2.740981],[-78.849104,-2.741028],[-78.849225,-2.741061],[-78.849312,-2.741094]]},"properties":{"id":146,"route_id":17,"name":"Tramo 146 R17","description":"Tramo 146 R17","stroke":"#FFA500","stroke-width":4,"stroke-opacity":1}},{"type":"Feature","geometry":{"type":"LineString","coordinates":[[-78.84902,-2.742715],[-78.849652,-2.742817]]},"properties":{"id":82,"route_id":18,"name":"Tramo 82 R18","description":"Tramo 82 R18","stroke":"#800080","stroke-width":4,"stroke-opacity":1}},{"type":"Feature","geometry":{"type":"LineString","coordinates":[[-78.850352,-2.741483],[-78.84971,-2.742789]]},"properties":{"id":83,"route_id":18,"name":"Tramo 83 R18","description":"Tramo 83 R18","stroke":"#800080","stroke-width":4,"stroke-opacity":1}},{"type":"Feature","geometry":{"type":"LineString","coordinates":[[-78.84953,-2.740503],[-78.849915,-2.740608],[-78.850263,-2.740698]]},"properties":{"id":87,"route_id":18,"name":"Tramo 87 R18","description":"Tramo 87 R18","stroke":"#800080","stroke-width":4,"stroke-opacity":1}},{"type":"Feature","geometry":{"type":"LineString","coordinates":[[-78.849714,-2.739815],[-78.850186,-2.73994]]},"properties":{"id":90,"route_id":18,"name":"Tramo 90 R18","description":"Tramo 90 R18","stroke":"#800080","stroke-width":4,"stroke-opacity":1}},{"type":"Feature","geometry":{"type":"LineString","coordinates":[[-78.85023,-2.73998],[-78.850269,-2.740317],[-78.850284,-2.740525],[-78.8503,-2.740668]]},"properties":{"id":91,"route_id":18,"name":"Tramo 91 R18","description":"Tramo 91 R18","stroke":"#800080","stroke-width":4,"stroke-opacity":1}},{"type":"Feature","geometry":{"type":"LineString","coordinates":[[-78.848362,-2.743958],[-78.849238,-2.744242]]},"properties":{"id":139,"route_id":18,"name":"Tramo 139 R18","description":"Tramo 139 R18","stroke":"#800080","stroke-width":4,"stroke-opacity":1}},{"type":"Feature","geometry":{"type":"LineString","coordinates":[[-78.849289,-2.744185],[-78.849514,-2.743414]]},"properties":{"id":140,"route_id":18,"name":"Tramo 140 R18","description":"Tramo 140 R18","stroke":"#800080","stroke-width":4,"stroke-opacity":1}},{"type":"Feature","geometry":{"type":"LineString","coordinates":[[-78.849514,-2.743415],[-78.849479,-2.743545],[-78.849424,-2.743753],[-78.849254,-2.744308],[-78.849123,-2.744792],[-78.84907,-2.745006],[-78.849038,-2.745237],[-78.848983,-2.745546],[-78.848926,-2.745883],[-78.848821,-2.746463],[-78.848779,-2.746687],[-78.848727,-2.746807],[-78.848659,-2.746921],[-78.8485,-2.747148],[-78.848304,-2.747346],[-78.848132,-2.747521],[-78.847816,-2.747805],[-78.847754,-2.74785],[-78.847605,-2.747848],[-78.847375,-2.747745]]},"properties":{"id":141,"route_id":18,"name":"Tramo 141 R18","description":"Tramo 141 R18","stroke":"#800080","stroke-width":4,"stroke-opacity":1}},{"type":"Feature","geometry":{"type":"LineString","coordinates":[[-78.849329,-2.744253],[-78.84978,-2.744358],[-78.850222,-2.744494]]},"properties":{"id":142,"route_id":18,"name":"Tramo 142 R18","description":"Tramo 142 R18","stroke":"#800080","stroke-width":4,"stroke-opacity":1}},{"type":"Feature","geometry":{"type":"LineString","coordinates":[[-78.849681,-2.742868],[-78.849291,-2.744176]]},"properties":{"id":143,"route_id":18,"name":"Tramo 143 R18","description":"Tramo 143 R18","stroke":"#800080","stroke-width":4,"stroke-opacity":1}},{"type":"Feature","geometry":{"type":"LineString","coordinates":[[-78.849731,-2.742835],[-78.850844,-2.743055]]},"properties":{"id":144,"route_id":18,"name":"Tramo 144 R18","description":"Tramo 144 R18","stroke":"#800080","stroke-width":4,"stroke-opacity":1}},{"type":"Feature","geometry":{"type":"LineString","coordinates":[[-78.849371,-2.741107],[-78.85032,-2.741439]]},"properties":{"id":145,"route_id":18,"name":"Tramo 145 R18","description":"Tramo 145 R18","stroke":"#800080","stroke-width":4,"stroke-opacity":1}},{"type":"Feature","geometry":{"type":"LineString","coordinates":[[-78.850302,-2.740727],[-78.850329,-2.741049],[-78.850348,-2.741205],[-78.850349,-2.741247],[-78.850355,-2.741297],[-78.85036,-2.741334],[-78.850363,-2.741375],[-78.850362,-2.741416]]},"properties":{"id":147,"route_id":18,"name":"Tramo 147 R18","description":"Tramo 147 R18","stroke":"#800080","stroke-width":4,"stroke-opacity":1}},{"type":"Feature","geometry":{"type":"LineString","coordinates":[[-78.850219,-2.739975],[-78.850263,-2.740314],[-78.850286,-2.740515],[-78.850299,-2.740665]]},"properties":{"id":148,"route_id":18,"name":"Tramo 148 R18","description":"Tramo 148 R18","stroke":"#800080","stroke-width":4,"stroke-opacity":1}},{"type":"Feature","geometry":{"type":"LineString","coordinates":[[-78.850044,-2.738029],[-78.85007,-2.738379],[-78.850085,-2.738565],[-78.850086,-2.738743],[-78.850084,-2.73899],[-78.850092,-2.739248],[-78.850157,-2.739556],[-78.850212,-2.739901]]},"properties":{"id":149,"route_id":18,"name":"Tramo 149 R18","description":"Tramo 149 R18","stroke":"#800080","stroke-width":4,"stroke-opacity":1}},{"type":"Feature","geometry":{"type":"LineString","coordinates":[[-78.849631,-2.737306],[-78.849845,-2.737404],[-78.84988,-2.737468],[-78.849916,-2.737565],[-78.849924,-2.737615],[-78.849939,-2.737683],[-78.850026,-2.737945]]},"properties":{"id":150,"route_id":18,"name":"Tramo 150 R18","description":"Tramo 150 R18","stroke":"#800080","stroke-width":4,"stroke-opacity":1}},{"type":"Feature","geometry":{"type":"LineString","coordinates":[[-78.850487,-2.737096],[-78.850466,-2.737487],[-78.850452,-2.737699],[-78.850427,-2.737774],[-78.850416,-2.737865],[-78.850481,-2.737931],[-78.850555,-2.73797],[-78.850576,-2.738052],[-78.850605,-2.738147],[-78.850692,-2.73837],[-78.850798,-2.73875],[-78.850879,-2.739146],[-78.851004,-2.73978],[-78.851014,-2.739819],[-78.851112,-2.740381],[-78.851065,-2.741171],[-78.851027,-2.741743],[-78.850974,-2.742321],[-78.850946,-2.742513],[-78.850936,-2.742695],[-78.850909,-2.742992],[-78.850882,-2.7431],[-78.850866,-2.743153],[-78.850779,-2.743331],[-78.850652,-2.743634],[-78.850377,-2.744248],[-78.850268,-2.74451],[-78.850089,-2.744984],[-78.849974,-2.745313],[-78.849936,-2.745445],[-78.849894,-2.745654],[-78.849821,-2.746031],[-78.849749,-2.746408],[-78.849632,-2.747026],[-78.849518,-2.747664],[-78.84948,-2.747858],[-78.849488,-2.748021],[-78.849505,-2.748232],[-78.849507,-2.748435],[-78.849511,-2.74863],[-78.849462,-2.748983],[-78.849422,-2.749374],[-78.849346,-2.749774],[-78.849297,-2.749918],[-78.849239,-2.750014],[-78.849122,-2.750115],[-78.848889,-2.750298]]},"properties":{"id":233,"route_id":18,"name":"Tramo 233 R18","description":"Tramo 233 R18","stroke":"#800080","stroke-width":4,"stroke-opacity":1}}]}