{"type":"FeatureCollection","features":[{"type":"Feature","geometry":{"type":"LineString","coordinates":[[-78.845421,-2.734071],[-78.845311,-2.734697],[-78.84536,-2.734751],[-78.845354,-2.734793],[-78.845329,-2.734837],[-78.845273,-2.734874],[-78.845253,-2.734956],[-78.845211,-2.735241],[-78.845101,-2.736064],[-78.844702,-2.735985],[-78.844294,-2.735901],[-78.84399,-2.735846],[-78.843683,-2.735811],[-78.843039,-2.73574]]},"properties":{"id":"R1","stroke":"#FFA000","stroke-width":3,"stroke-opacity":1}},{"type":"Feature","geometry":{"type":"LineString","coordinates":[[-78.845355,-2.7348],[-78.846338,-2.735285],[-78.847339,-2.735757]]},"properties":{"id":"R1","stroke":"#FFA000","stroke-width":3,"stroke-opacity":1}},{"type":"Feature","geometry":{"type":"LineString","coordinates":[[-78.84511,-2.736061],[-78.846012,-2.736275],[-78.846935,-2.736524]]},"properties":{"id":"R1","stroke":"#FFA000","stroke-width":3,"stroke-opacity":1}},{"type":"Feature","geometry":{"type":"LineString","coordinates":[[-78.846272,-2.73526],[-78.846002,-2.736947],[-78.845005,-2.736691],[-78.845108,-2.73606]]},"properties":{"id":"R1","stroke":"#FFA000","stroke-width":3,"stroke-opacity":1}},{"type":"Feature","geometry":{"type":"LineString","coordinates":[[-78.845021,-2.736703],[-78.8449,-2.737622],[-78.844874,-2.737805],[-78.844835,-2.737972],[-78.844736,-2.738059],[-78.844619,-2.738093],[-78.844405,-2.73812]]},"properties":{"id":"R2","stroke":"#8D6E63","stroke-width":3,"stroke-opacity":1}},{"type":"Feature","geometry":{"type":"LineString","coordinates":[[-78.846013,-2.737001],[-78.845922,-2.737698]]},"properties":{"id":"R2","stroke":"#8D6E63","stroke-width":3,"stroke-opacity":1}},{"type":"Feature","geometry":{"type":"LineString","coordinates":[[-78.844913,-2.737631],[-78.845432,-2.73768],[-78.845932,-2.7377],[-78.846261,-2.737738],[-78.846407,-2.737762],[-78.846566,-2.737797],[-78.846509,-2.737877],[-78.846497,-2.737909],[-78.846469,-2.738017],[-78.846421,-2.738244]]},"properties":{"id":"R2","stroke":"#8D6E63","stroke-width":3,"stroke-opacity":1}},{"type":"Feature","geometry":{"type":"LineString","coordinates":[[-78.845245,-2.737673],[-78.845133,-2.738498]]},"properties":{"id":"R2","stroke":"#8D6E63","stroke-width":3,"stroke-opacity":1}},{"type":"Feature","geometry":{"type":"LineString","coordinates":[[-78.846022,-2.736949],[-78.846717,-2.737141],[-78.847054,-2.737228],[-78.847397,-2.73731],[-78.848749,-2.737589]]},"properties":{"stroke":"#28A745","stroke-width":3,"stroke-opacity":1,"ruta":"R3"}},{"type":"Feature","geometry":{"type":"LineString","coordinates":[[-78.847866,-2.737408],[-78.847744,-2.738018]]},"properties":{"stroke":"#28A745","stroke-width":3,"stroke-opacity":1,"ruta":"R3"}},{"type":"Feature","geometry":{"type":"LineString","coordinates":[[-78.846934,-2.736547],[-78.846749,-2.737161],[-78.846586,-2.737777]]},"properties":{"stroke":"#28A745","stroke-width":3,"stroke-opacity":1,"ruta":"R3"}},{"type":"Feature","geometry":{"type":"LineString","coordinates":[[-78.846948,-2.736522],[-78.84795,-2.736838],[-78.848185,-2.736985],[-78.848371,-2.737085],[-78.848552,-2.737147],[-78.848821,-2.737231],[-78.848917,-2.73725],[-78.84901,-2.737292],[-78.849171,-2.737472]]},"properties":{"ruta":"R4","stroke":"#FF6666","stroke-width":4}},{"type":"Feature","geometry":{"type":"LineString","coordinates":[[-78.84797,-2.736854],[-78.847865,-2.737391]]},"properties":{"ruta":"R4","stroke":"#FF6666","stroke-width":4}},{"type":"Feature","geometry":{"type":"LineString","coordinates":[[-78.847273,-2.736615],[-78.847123,-2.737215]]},"properties":{"ruta":"R4","stroke":"#FF6666","stroke-width":4}},{"type":"Feature","geometry":{"type":"LineString","coordinates":[[-78.84695,-2.736522],[-78.84702,-2.736296],[-78.847053,-2.736178],[-78.847117,-2.736062],[-78.847267,-2.735848],[-78.847397,-2.735725],[-78.847379,-2.734944],[-78.847364,-2.734675],[-78.847328,-2.734542]]},"properties":{"ruta":"R4","stroke":"#FF6666","stroke-width":4}},{"type":"Feature","geometry":{"type":"LineString","coordinates":[[-78.847402,-2.735722],[-78.848305,-2.73613],[-78.848532,-2.736085],[-78.848629,-2.736018],[-78.848721,-2.735919],[-78.848812,-2.735475],[-78.84889,-2.735377],[-78.848938,-2.73551]]},"properties":{"ruta":"R4","stroke":"#FF6666","stroke-width":4}},{"type":"Feature","geometry":{"type":"LineString","coordinates":[[-78.848936,-2.735509],[-78.84912,-2.736914]]},"properties":{"ruta":"R4","stroke":"#FF6666","stroke-width":4}},{"type":"Feature","geometry":{"type":"LineString","coordinates":[[-78.847485,-2.735764],[-78.847439,-2.735986],[-78.847388,-2.736193],[-78.847323,-2.736405],[-78.847271,-2.736616]]},"properties":{"ruta":"R4","stroke":"#FF6666","stroke-width":4}},{"type":"Feature","geometry":{"type":"LineString","coordinates":[[-78.848703,-2.736147],[-78.848714,-2.736337],[-78.848726,-2.736512],[-78.848698,-2.736551],[-78.848673,-2.736568],[-78.84862,-2.736577],[-78.848575,-2.736552],[-78.848476,-2.736493],[-78.8482,-2.736327],[-78.848117,-2.736335],[-78.84807,-2.736389],[-78.848029,-2.736505],[-78.848004,-2.736626],[-78.847971,-2.736851]]},"properties":{"ruta":"R4","stroke":"#FF6666","stroke-width":4}},{"type":"Feature","geometry":{"type":"LineString","coordinates":[[-78.844188,-2.739166],[-78.844345,-2.738264],[-78.845313,-2.738567],[-78.845823,-2.738674],[-78.846318,-2.738795],[-78.84615,-2.739637]]},"properties":{"ruta":"R5","stroke":"#008000","stroke-width":4}},{"type":"Feature","geometry":{"type":"LineString","coordinates":[[-78.845939,-2.738722],[-78.846026,-2.738233],[-78.846113,-2.737761]]},"properties":{"ruta":"R5","stroke":"#008000","stroke-width":4}},{"type":"Feature","geometry":{"type":"LineString","coordinates":[[-78.846036,-2.738199],[-78.846405,-2.738264]]},"properties":{"ruta":"R5","stroke":"#008000","stroke-width":4}},{"type":"Feature","geometry":{"type":"LineString","coordinates":[[-78.845138,-2.738509],[-78.845033,-2.739337]]},"properties":{"ruta":"R5","stroke":"#008000","stroke-width":4}},{"type":"Feature","geometry":{"type":"LineString","coordinates":[[-78.845943,-2.738719],[-78.845694,-2.739511]]},"properties":{"ruta":"R5","stroke":"#008000","stroke-width":4}},{"type":"Feature","geometry":{"type":"LineString","coordinates":[[-78.846591,-2.7378],[-78.847228,-2.737938],[-78.847632,-2.738026],[-78.847755,-2.738048],[-78.847896,-2.73804],[-78.847983,-2.738035],[-78.848083,-2.738042],[-78.848233,-2.738062],[-78.848352,-2.738098],[-78.848607,-2.738162],[-78.848611,-2.738164],[-78.848615,-2.738163],[-78.848623,-2.738163],[-78.848678,-2.738187]]},"properties":{"ruta":"R6","stroke":"#BDB76B","stroke-width":4}},{"type":"Feature","geometry":{"type":"LineString","coordinates":[[-78.847104,-2.737289],[-78.846954,-2.737867]]},"properties":{"ruta":"R6","stroke":"#BDB76B","stroke-width":4}},{"type":"Feature","geometry":{"type":"LineString","coordinates":[[-78.846426,-2.738266],[-78.846782,-2.738335],[-78.846956,-2.738371],[-78.847117,-2.738436],[-78.847738,-2.738692],[-78.847544,-2.739303],[-78.847373,-2.739923]]},"properties":{"ruta":"R7","stroke":"#FF0000","stroke-width":4}},{"type":"Feature","geometry":{"type":"LineString","coordinates":[[-78.84759,-2.73916],[-78.846955,-2.738983],[-78.846327,-2.738793]]},"properties":{"ruta":"R7","stroke":"#FF0000","stroke-width":4}},{"type":"Feature","geometry":{"type":"LineString","coordinates":[[-78.846425,-2.738267],[-78.846324,-2.738782]]},"properties":{"ruta":"R7","stroke":"#FF0000","stroke-width":4}},{"type":"Feature","geometry":{"type":"LineString","coordinates":[[-78.847934,-2.738079],[-78.847738,-2.738688],[-78.8481,-2.73884],[-78.848501,-2.738989],[-78.848925,-2.73911],[-78.849359,-2.739221],[-78.849401,-2.739016],[-78.849427,-2.738891],[-78.849423,-2.73877],[-78.849424,-2.738535],[-78.849384,-2.738314]]},"properties":{"ruta":"R8","stroke":"#00BFFF","stroke-width":4}},{"type":"Feature","geometry":{"type":"LineString","coordinates":[[-78.848393,-2.739385],[-78.848688,-2.738204]]},"properties":{"ruta":"R8","stroke":"#00BFFF","stroke-width":4}},{"type":"Feature","geometry":{"type":"LineString","coordinates":[[-78.849202,-2.737561],[-78.849386,-2.738312]]},"properties":{"ruta":"R8","stroke":"#00BFFF","stroke-width":4}},{"type":"Feature","geometry":{"type":"LineString","coordinates":[[-78.846772,-2.738968],[-78.846237,-2.740829]]},"properties":{"ruta":"R9","stroke":"#8B0000","stroke-width":4}},{"type":"Feature","geometry":{"type":"LineString","coordinates":[[-78.846545,-2.739758],[-78.846165,-2.739655]]},"properties":{"ruta":"R9","stroke":"#8B0000","stroke-width":4}},{"type":"Feature","geometry":{"type":"LineString","coordinates":[[-78.847054,-2.741044],[-78.846051,-2.740782],[-78.84602,-2.740362],[-78.846084,-2.740016],[-78.847219,-2.740397]]},"properties":{"ruta":"R9","stroke":"#8B0000","stroke-width":4}},{"type":"Feature","geometry":{"type":"LineString","coordinates":[[-78.847623,-2.739169],[-78.849248,-2.739678],[-78.849142,-2.740031],[-78.849068,-2.740249],[-78.84899,-2.740358],[-78.848196,-2.74015],[-78.848384,-2.739409]]},"properties":{"ruta":"R10","stroke":"#00008B","stroke-width":4}},{"type":"Feature","geometry":{"type":"LineString","coordinates":[[-78.84924,-2.739675],[-78.849348,-2.739261]]},"properties":{"ruta":"R10","stroke":"#00008B","stroke-width":4}},{"type":"Feature","geometry":{"type":"LineString","coordinates":[[-78.848992,-2.740386],[-78.848289,-2.742558]]},"properties":{"ruta":"R11","stroke":"#008080","stroke-width":4}},{"type":"Feature","geometry":{"type":"LineString","coordinates":[[-78.848806,-2.740946],[-78.848071,-2.740687]]},"properties":{"ruta":"R11","stroke":"#008080","stroke-width":4}},{"type":"Feature","geometry":{"type":"LineString","coordinates":[[-78.848634,-2.741491],[-78.847872,-2.741263],[-78.847118,-2.741055]]},"properties":{"ruta":"R11","stroke":"#008080","stroke-width":4}},{"type":"Feature","geometry":{"type":"LineString","coordinates":[[-78.848067,-2.740684],[-78.847818,-2.741518],[-78.847591,-2.742363]]},"properties":{"ruta":"R11","stroke":"#008080","stroke-width":4}},{"type":"Feature","geometry":{"type":"LineString","coordinates":[[-78.846558,-2.739755],[-78.847365,-2.739949],[-78.84819,-2.740159],[-78.848128,-2.740419],[-78.848057,-2.740682],[-78.847637,-2.740546],[-78.847257,-2.740401],[-78.847356,-2.739964]]},"properties":{"ruta":"R12","stroke":"#FFD700","stroke-width":4}},{"type":"Feature","geometry":{"type":"LineString","coordinates":[[-78.84828,-2.742567],[-78.848045,-2.742501],[-78.847847,-2.742453],[-78.847662,-2.742406],[-78.847462,-2.742366],[-78.846887,-2.742278],[-78.846314,-2.742183],[-78.846225,-2.741848],[-78.846171,-2.741512],[-78.8461,-2.741168],[-78.846081,-2.740991],[-78.846054,-2.740814]]},"properties":{"ruta":"R13","stroke":"#FF1493","stroke-width":4}},{"type":"Feature","geometry":{"type":"LineString","coordinates":[[-78.846781,-2.742268],[-78.847014,-2.741342],[-78.847239,-2.740428]]},"properties":{"ruta":"R13","stroke":"#FF1493","stroke-width":4}},{"type":"Feature","geometry":{"type":"LineString","coordinates":[[-78.845662,-2.739877],[-78.845649,-2.74001],[-78.845664,-2.740153],[-78.845671,-2.7403],[-78.845832,-2.740778],[-78.846078,-2.741842],[-78.846072,-2.742147],[-78.846062,-2.743347]]},"properties":{"ruta":"R14","stroke":"#4169E1","stroke-width":4}},{"type":"Feature","geometry":{"type":"LineString","coordinates":[[-78.846573,-2.74343],[-78.846064,-2.74335],[-78.845116,-2.743473]]},"properties":{"ruta":"R14","stroke":"#4169E1","stroke-width":4}},{"type":"Feature","geometry":{"type":"LineString","coordinates":[[-78.846059,-2.743013],[-78.845635,-2.742984],[-78.845413,-2.742975],[-78.845177,-2.742963]]},"properties":{"ruta":"R14","stroke":"#4169E1","stroke-width":4}},{"type":"Feature","geometry":{"type":"LineString","coordinates":[[-78.846064,-2.74268],[-78.845631,-2.742669],[-78.845171,-2.742697],[-78.845074,-2.741932],[-78.845111,-2.741574],[-78.845134,-2.741209],[-78.845236,-2.740896],[-78.845839,-2.740809]]},"properties":{"ruta":"R14","stroke":"#4169E1","stroke-width":4}},{"type":"Feature","geometry":{"type":"LineString","coordinates":[[-78.845227,-2.740889],[-78.845443,-2.74035],[-78.845539,-2.7401],[-78.845651,-2.739852],[-78.845666,-2.739776],[-78.845659,-2.739688],[-78.845681,-2.739546],[-78.844955,-2.73935],[-78.844226,-2.739195]]},"properties":{"ruta":"R15","stroke":"#A52A2A","stroke-width":4}},{"type":"Feature","geometry":{"type":"LineString","coordinates":[[-78.845683,-2.739546],[-78.846148,-2.739656],[-78.846082,-2.740005]]},"properties":{"ruta":"R15","stroke":"#A52A2A","stroke-width":4}},{"type":"Feature","geometry":{"type":"LineString","coordinates":[[-78.84383,-2.740751],[-78.844723,-2.740571],[-78.844942,-2.740457],[-78.845283,-2.740119],[-78.845644,-2.739718]]},"properties":{"ruta":"R15","stroke":"#A52A2A","stroke-width":4}},{"type":"Feature","geometry":{"type":"LineString","coordinates":[[-78.848283,-2.742583],[-78.847949,-2.743757],[-78.847654,-2.744918],[-78.846674,-2.744728],[-78.846695,-2.744158],[-78.846637,-2.743666],[-78.846538,-2.743188],[-78.846327,-2.742224]]},"properties":{"ruta":"R16","stroke":"#008000","stroke-width":4}},{"type":"Feature","geometry":{"type":"LineString","coordinates":[[-78.848313,-2.744025],[-78.848229,-2.744525],[-78.84813,-2.745014],[-78.847885,-2.744966],[-78.847658,-2.744917]]},"properties":{"ruta":"R16","stroke":"#008000","stroke-width":4}},{"type":"Feature","geometry":{"type":"LineString","coordinates":[[-78.847576,-2.742419],[-78.847285,-2.743615],[-78.847137,-2.744203],[-78.846976,-2.744786]]},"properties":{"ruta":"R16","stroke":"#008000","stroke-width":4}},{"type":"Feature","geometry":{"type":"LineString","coordinates":[[-78.847935,-2.743783],[-78.847911,-2.743773],[-78.84764,-2.743698],[-78.847298,-2.743611],[-78.846595,-2.74343]]},"properties":{"ruta":"R16","stroke":"#008000","stroke-width":4}},{"type":"Feature","geometry":{"type":"LineString","coordinates":[[-78.848346,-2.743879],[-78.848402,-2.743567],[-78.848424,-2.743418],[-78.848443,-2.743275],[-78.848581,-2.742629],[-78.848981,-2.742701]]},"properties":{"ruta":"R17","stroke":"#FFA500","stroke-width":4}},{"type":"Feature","geometry":{"type":"LineString","coordinates":[[-78.84898,-2.742703],[-78.849142,-2.741958],[-78.849312,-2.741195],[-78.849544,-2.740324],[-78.84967,-2.739855],[-78.849682,-2.739806],[-78.849685,-2.739761],[-78.849691,-2.739652],[-78.849705,-2.739476]]},"properties":{"ruta":"R17","stroke":"#FFA500","stroke-width":4}},{"type":"Feature","geometry":{"type":"LineString","coordinates":[[-78.849483,-2.740485],[-78.849116,-2.740394]]},"properties":{"ruta":"R17","stroke":"#FFA500","stroke-width":4}},{"type":"Feature","geometry":{"type":"LineString","coordinates":[[-78.849671,-2.739803],[-78.849344,-2.739708]]},"properties":{"ruta":"R17","stroke":"#FFA500","stroke-width":4}},{"type":"Feature","geometry":{"type":"LineString","coordinates":[[-78.848586,-2.74263],[-78.848452,-2.7426]]},"properties":{"ruta":"R17","stroke":"#FFA500","stroke-width":4}},{"type":"Feature","geometry":{"type":"LineString","coordinates":[[-78.849713,-2.739811],[-78.850231,-2.739952],[-78.850364,-2.741385],[-78.85036,-2.741456],[-78.850327,-2.741524],[-78.849689,-2.742822],[-78.849001,-2.742708]]},"properties":{"ruta":"R18","stroke":"#800080","stroke-width":4}},{"type":"Feature","geometry":{"type":"LineString","coordinates":[[-78.849692,-2.742821],[-78.850277,-2.742945],[-78.850572,-2.74301],[-78.850718,-2.74304],[-78.85086,-2.743086]]},"properties":{"ruta":"R18","stroke":"#800080","stroke-width":4}},{"type":"Feature","geometry":{"type":"LineString","coordinates":[[-78.850292,-2.740708],[-78.84953,-2.740495]]},"properties":{"ruta":"R18","stroke":"#800080","stroke-width":4}},{"type":"Feature","geometry":{"type":"LineString","coordinates":[[-78.850358,-2.741445],[-78.84937,-2.74111]]},"properties":{"ruta":"R18","stroke":"#800080","stroke-width":4}}]}